{
  "type": "FeatureCollection",
  "features": [
    {
      "type": "Feature",
      "properties": {
        "norad_id": 66329,
        "name": "STARLINK-35505",
        "group": "last-30-days",
        "lat": -40.68934593993215,
        "lon": -74.33502229605638,
        "alt_km": 419.1735012592826,
        "timestamp": "2025-12-03T13:52:08.343972+00:00",
        "meta_object_name": "STARLINK-35505",
        "meta_object_id": "2025-253L",
        "meta_epoch": "2025-12-02T21:19:39.072288",
        "meta_mean_motion": 15.50727196,
        "meta_eccentricity": 0.00040071,
        "meta_inclination": 42.9944,
        "meta_ra_of_asc_node": 42.3497,
        "meta_arg_of_pericenter": 64.2756,
        "meta_mean_anomaly": 295.8518,
        "meta_ephemeris_type": 0,
        "meta_classification_type": "U",
        "meta_norad_cat_id": 66329,
        "meta_element_set_no": 999,
        "meta_rev_at_epoch": 540,
        "meta_bstar": 0.005542325,
        "meta_mean_motion_dot": 0.00341195,
        "meta_mean_motion_ddot": 0,
        "tle_line1": "1 66329U 25253L   25336.88864667  .00341195  00000+0  55423-2 0  9998",
        "tle_line2": "2 66329  42.9944  42.3497 0004007  64.2756 295.8518 15.50727196  5400"
      },
      "geometry": {
        "type": "Point",
        "coordinates": [
          -74.33502229605638,
          -40.68934593993215
        ]
      }
    },
    {
      "type": "Feature",
      "properties": {
        "norad_id": 66330,
        "name": "STARLINK-35512",
        "group": "last-30-days",
        "lat": 9.522640797281369,
        "lon": -151.84951605814837,
        "alt_km": 443.1679623962964,
        "timestamp": "2025-12-03T13:52:08.343984+00:00",
        "meta_object_name": "STARLINK-35512",
        "meta_object_id": "2025-253M",
        "meta_epoch": "2025-12-03T08:00:01.999872",
        "meta_mean_motion": 15.40668129,
        "meta_eccentricity": 0.00016957,
        "meta_inclination": 43.0006,
        "meta_ra_of_asc_node": 39.9303,
        "meta_arg_of_pericenter": 286.9548,
        "meta_mean_anomaly": 321.1234,
        "meta_ephemeris_type": 0,
        "meta_classification_type": "U",
        "meta_norad_cat_id": 66330,
        "meta_element_set_no": 999,
        "meta_rev_at_epoch": 541,
        "meta_bstar": 0.00064698194,
        "meta_mean_motion_dot": 0.00026789,
        "meta_mean_motion_ddot": 0,
        "tle_line1": "1 66330U 25253M   25337.33335648  .00026789  00000+0  64698-3 0  9997",
        "tle_line2": "2 66330  43.0006  39.9303 0001695 286.9548 321.1234 15.40668129  5411"
      },
      "geometry": {
        "type": "Point",
        "coordinates": [
          -151.84951605814837,
          9.522640797281369
        ]
      }
    },
    {
      "type": "Feature",
      "properties": {
        "norad_id": 66331,
        "name": "STARLINK-35257",
        "group": "last-30-days",
        "lat": -42.562032796960644,
        "lon": -42.01064026667489,
        "alt_km": 417.5284185807577,
        "timestamp": "2025-12-03T13:52:08.343995+00:00",
        "meta_object_name": "STARLINK-35257",
        "meta_object_id": "2025-253N",
        "meta_epoch": "2025-12-03T04:56:59.008128",
        "meta_mean_motion": 15.50615479,
        "meta_eccentricity": 7.535e-05,
        "meta_inclination": 42.9973,
        "meta_ra_of_asc_node": 40.4224,
        "meta_arg_of_pericenter": 282.3913,
        "meta_mean_anomaly": 77.6863,
        "meta_ephemeris_type": 0,
        "meta_classification_type": "U",
        "meta_norad_cat_id": 66331,
        "meta_element_set_no": 999,
        "meta_rev_at_epoch": 545,
        "meta_bstar": 0.0019143377,
        "meta_mean_motion_dot": 0.00113757,
        "meta_mean_motion_ddot": 0,
        "tle_line1": "1 66331U 25253N   25337.20623852  .00113757  00000+0  19143-2 0  9997",
        "tle_line2": "2 66331  42.9973  40.4224 0000753 282.3913  77.6863 15.50615479  5458"
      },
      "geometry": {
        "type": "Point",
        "coordinates": [
          -42.01064026667489,
          -42.562032796960644
        ]
      }
    },
    {
      "type": "Feature",
      "properties": {
        "norad_id": 66332,
        "name": "STARLINK-35322",
        "group": "last-30-days",
        "lat": -42.9635056343486,
        "lon": -53.6659878854028,
        "alt_km": 416.8291024451337,
        "timestamp": "2025-12-03T13:52:08.344006+00:00",
        "meta_object_name": "STARLINK-35322",
        "meta_object_id": "2025-253P",
        "meta_epoch": "2025-12-02T05:48:04.239936",
        "meta_mean_motion": 15.50671276,
        "meta_eccentricity": 9.86e-05,
        "meta_inclination": 43.0002,
        "meta_ra_of_asc_node": 46.0856,
        "meta_arg_of_pericenter": 282.8379,
        "meta_mean_anomaly": 77.2371,
        "meta_ephemeris_type": 0,
        "meta_classification_type": "U",
        "meta_norad_cat_id": 66332,
        "meta_element_set_no": 999,
        "meta_rev_at_epoch": 530,
        "meta_bstar": 0.001523,
        "meta_mean_motion_dot": 0.00090339,
        "meta_mean_motion_ddot": 0,
        "tle_line1": "1 66332U 25253P   25336.24171574  .00090339  00000+0  15230-2 0  9993",
        "tle_line2": "2 66332  43.0002  46.0856 0000986 282.8379  77.2371 15.50671276  5307"
      },
      "geometry": {
        "type": "Point",
        "coordinates": [
          -53.6659878854028,
          -42.9635056343486
        ]
      }
    },
    {
      "type": "Feature",
      "properties": {
        "norad_id": 66333,
        "name": "STARLINK-35400",
        "group": "last-30-days",
        "lat": -42.7543516178019,
        "lon": -44.59867513211836,
        "alt_km": 417.53290250244663,
        "timestamp": "2025-12-03T13:52:08.344019+00:00",
        "meta_object_name": "STARLINK-35400",
        "meta_object_id": "2025-253Q",
        "meta_epoch": "2025-12-03T04:57:28.693440",
        "meta_mean_motion": 15.5061405,
        "meta_eccentricity": 7.589e-05,
        "meta_inclination": 42.9978,
        "meta_ra_of_asc_node": 40.4243,
        "meta_arg_of_pericenter": 264.7764,
        "meta_mean_anomaly": 95.3009,
        "meta_ephemeris_type": 0,
        "meta_classification_type": "U",
        "meta_norad_cat_id": 66333,
        "meta_element_set_no": 999,
        "meta_rev_at_epoch": 545,
        "meta_bstar": 0.0019637117,
        "meta_mean_motion_dot": 0.00116738,
        "meta_mean_motion_ddot": 0,
        "tle_line1": "1 66333U 25253Q   25337.20658210  .00116738  00000+0  19637-2 0  9995",
        "tle_line2": "2 66333  42.9978  40.4243 0000758 264.7764  95.3009 15.50614050  5452"
      },
      "geometry": {
        "type": "Point",
        "coordinates": [
          -44.59867513211836,
          -42.7543516178019
        ]
      }
    },
    {
      "type": "Feature",
      "properties": {
        "norad_id": 66334,
        "name": "STARLINK-35407",
        "group": "last-30-days",
        "lat": -42.97569232347148,
        "lon": -52.70076364718696,
        "alt_km": 415.9679113481816,
        "timestamp": "2025-12-03T13:52:08.344031+00:00",
        "meta_object_name": "STARLINK-35407",
        "meta_object_id": "2025-253R",
        "meta_epoch": "2025-12-02T05:47:54.704832",
        "meta_mean_motion": 15.50606846,
        "meta_eccentricity": 0.000182,
        "meta_inclination": 43.0002,
        "meta_ra_of_asc_node": 46.0853,
        "meta_arg_of_pericenter": 277.7851,
        "meta_mean_anomaly": 82.2803,
        "meta_ephemeris_type": 0,
        "meta_classification_type": "U",
        "meta_norad_cat_id": 66334,
        "meta_element_set_no": 999,
        "meta_rev_at_epoch": 530,
        "meta_bstar": 0.0026112,
        "meta_mean_motion_dot": 0.00156096,
        "meta_mean_motion_ddot": 0,
        "tle_line1": "1 66334U 25253R   25336.24160538  .00156096  00000+0  26112-2 0  9997",
        "tle_line2": "2 66334  43.0002  46.0853 0001820 277.7851  82.2803 15.50606846  5309"
      },
      "geometry": {
        "type": "Point",
        "coordinates": [
          -52.70076364718696,
          -42.97569232347148
        ]
      }
    },
    {
      "type": "Feature",
      "properties": {
        "norad_id": 66335,
        "name": "STARLINK-35417",
        "group": "last-30-days",
        "lat": 32.18328096638655,
        "lon": 176.12963210059132,
        "alt_km": 439.66796113433156,
        "timestamp": "2025-12-03T13:52:08.344042+00:00",
        "meta_object_name": "STARLINK-35417",
        "meta_object_id": "2025-253S",
        "meta_epoch": "2025-12-03T08:00:01.999872",
        "meta_mean_motion": 15.40664092,
        "meta_eccentricity": 0.00012122,
        "meta_inclination": 43.0008,
        "meta_ra_of_asc_node": 40.0187,
        "meta_arg_of_pericenter": 273.1981,
        "meta_mean_anomaly": 297.573,
        "meta_ephemeris_type": 0,
        "meta_classification_type": "U",
        "meta_norad_cat_id": 66335,
        "meta_element_set_no": 999,
        "meta_rev_at_epoch": 541,
        "meta_bstar": 0.00069633073,
        "meta_mean_motion_dot": 0.00028859,
        "meta_mean_motion_ddot": 0,
        "tle_line1": "1 66335U 25253S   25337.33335648  .00028859  00000+0  69633-3 0  9996",
        "tle_line2": "2 66335  43.0008  40.0187 0001212 273.1981 297.5730 15.40664092  5417"
      },
      "geometry": {
        "type": "Point",
        "coordinates": [
          176.12963210059132,
          32.18328096638655
        ]
      }
    }
  ]
}